{
  "type": "FeatureCollection",
  "features": [
    {
      "type": "Feature",
      "properties": {
        "norad_id": 44333,
        "name": "AT&T T-16",
        "group": "intelsat",
        "lat": -0.021741618774581393,
        "lon": -19.50324787019656,
        "alt_km": 35789.57995162918,
        "timestamp": "2025-12-17T23:38:06.530767+00:00",
        "meta_object_name": "AT&T T-16",
        "meta_object_id": "2019-034A",
        "meta_epoch": "2025-12-17T12:58:57.989280",
        "meta_mean_motion": 1.00269579,
        "meta_eccentricity": 7.793e-05,
        "meta_inclination": 0.0246,
        "meta_ra_of_asc_node": 64.4648,
        "meta_arg_of_pericenter": 67.2043,
        "meta_mean_anomaly": 48.6243,
        "meta_ephemeris_type": 0,
        "meta_classification_type": "U",
        "meta_norad_cat_id": 44333,
        "meta_element_set_no": 999,
        "meta_rev_at_epoch": 2381,
        "meta_bstar": 0,
        "meta_mean_motion_dot": -9e-07,
        "meta_mean_motion_ddot": 0,
        "tle_line1": "1 44333U 19034A   25351.54094895 -.00000090  00000+0  00000+0 0  9992",
        "tle_line2": "2 44333   0.0246  64.4648 0000779  67.2043  48.6243  1.00269579 23818"
      },
      "geometry": {
        "type": "Point",
        "coordinates": [
          -19.50324787019656,
          -0.021741618774581393
        ]
      }
    },
    {
      "type": "Feature",
      "properties": {
        "norad_id": 44476,
        "name": "INTELSAT 39 (IS-39)",
        "group": "intelsat",
        "lat": 0.02278401168400439,
        "lon": 143.29847639169662,
        "alt_km": 35781.27434893066,
        "timestamp": "2025-12-17T23:38:06.530778+00:00",
        "meta_object_name": "INTELSAT 39 (IS-39)",
        "meta_object_id": "2019-049B",
        "meta_epoch": "2025-12-17T15:07:16.808160",
        "meta_mean_motion": 1.00270101,
        "meta_eccentricity": 0.00012716,
        "meta_inclination": 0.0271,
        "meta_ra_of_asc_node": 350.8796,
        "meta_arg_of_pericenter": 141.7504,
        "meta_mean_anomaly": 242.623,
        "meta_ephemeris_type": 0,
        "meta_classification_type": "U",
        "meta_norad_cat_id": 44476,
        "meta_element_set_no": 999,
        "meta_rev_at_epoch": 2330,
        "meta_bstar": 0,
        "meta_mean_motion_dot": 0,
        "meta_mean_motion_ddot": 0,
        "tle_line1": "1 44476U 19049B   25351.63005565  .00000000  00000+0  00000+0 0  9992",
        "tle_line2": "2 44476   0.0271 350.8796 0001271 141.7504 242.6230  1.00270101 23307"
      },
      "geometry": {
        "type": "Point",
        "coordinates": [
          143.29847639169662,
          0.02278401168400439
        ]
      }
    },
    {
      "type": "Feature",
      "properties": {
        "norad_id": 46114,
        "name": "GALAXY 30 (G-30)",
        "group": "intelsat",
        "lat": -0.028775576288301352,
        "lon": -43.6078673364108,
        "alt_km": 35780.78399676066,
        "timestamp": "2025-12-17T23:38:06.530790+00:00",
        "meta_object_name": "GALAXY 30 (G-30)",
        "meta_object_id": "2020-056C",
        "meta_epoch": "2025-12-16T10:32:38.625216",
        "meta_mean_motion": 1.00271809,
        "meta_eccentricity": 0.00020504,
        "meta_inclination": 0.0174,
        "meta_ra_of_asc_node": 8.9673,
        "meta_arg_of_pericenter": 254.0657,
        "meta_mean_anomaly": 215.4609,
        "meta_ephemeris_type": 0,
        "meta_classification_type": "U",
        "meta_norad_cat_id": 46114,
        "meta_element_set_no": 999,
        "meta_rev_at_epoch": 1946,
        "meta_bstar": 0,
        "meta_mean_motion_dot": 6e-07,
        "meta_mean_motion_ddot": 0,
        "tle_line1": "1 46114U 20056C   25350.43933594  .00000060  00000+0  00000+0 0  9998",
        "tle_line2": "2 46114   0.0174   8.9673 0002050 254.0657 215.4609  1.00271809 19464"
      },
      "geometry": {
        "type": "Point",
        "coordinates": [
          -43.6078673364108,
          -0.028775576288301352
        ]
      }
    },
    {
      "type": "Feature",
      "properties": {
        "norad_id": 54026,
        "name": "GALAXY 33 (G-33)",
        "group": "intelsat",
        "lat": -0.02985061866361235,
        "lon": -51.59836404674018,
        "alt_km": 35780.5491828653,
        "timestamp": "2025-12-17T23:38:06.530802+00:00",
        "meta_object_name": "GALAXY 33 (G-33)",
        "meta_object_id": "2022-128A",
        "meta_epoch": "2025-12-17T14:24:23.836032",
        "meta_mean_motion": 1.00273632,
        "meta_eccentricity": 0.00017344,
        "meta_inclination": 0.0151,
        "meta_ra_of_asc_node": 4.8133,
        "meta_arg_of_pericenter": 256.2811,
        "meta_mean_anomaly": 268.4949,
        "meta_ephemeris_type": 0,
        "meta_classification_type": "U",
        "meta_norad_cat_id": 54026,
        "meta_element_set_no": 999,
        "meta_rev_at_epoch": 1192,
        "meta_bstar": 0,
        "meta_mean_motion_dot": 1.03e-06,
        "meta_mean_motion_ddot": 0,
        "tle_line1": "1 54026U 22128A   25351.60027588  .00000103  00000+0  00000+0 0  9996",
        "tle_line2": "2 54026   0.0151   4.8133 0001734 256.2811 268.4949  1.00273632 11924"
      },
      "geometry": {
        "type": "Point",
        "coordinates": [
          -51.59836404674018,
          -0.02985061866361235
        ]
      }
    },
    {
      "type": "Feature",
      "properties": {
        "norad_id": 54027,
        "name": "GALAXY 34 (G-34)",
        "group": "intelsat",
        "lat": -0.02156373942468994,
        "lon": -47.542931864533486,
        "alt_km": 35782.26054751519,
        "timestamp": "2025-12-17T23:38:06.530814+00:00",
        "meta_object_name": "GALAXY 34 (G-34)",
        "meta_object_id": "2022-128B",
        "meta_epoch": "2025-12-16T10:54:44.613792",
        "meta_mean_motion": 1.00271358,
        "meta_eccentricity": 0.00014405,
        "meta_inclination": 0.0238,
        "meta_ra_of_asc_node": 335.9527,
        "meta_arg_of_pericenter": 285.2083,
        "meta_mean_anomaly": 218.9464,
        "meta_ephemeris_type": 0,
        "meta_classification_type": "U",
        "meta_norad_cat_id": 54027,
        "meta_element_set_no": 999,
        "meta_rev_at_epoch": 1208,
        "meta_bstar": 0,
        "meta_mean_motion_dot": 0,
        "meta_mean_motion_ddot": 0,
        "tle_line1": "1 54027U 22128B   25350.45468303  .00000000  00000+0  00000+0 0  9999",
        "tle_line2": "2 54027   0.0238 335.9527 0001440 285.2083 218.9464  1.00271358 12086"
      },
      "geometry": {
        "type": "Point",
        "coordinates": [
          -47.542931864533486,
          -0.02156373942468994
        ]
      }
    },
    {
      "type": "Feature",
      "properties": {
        "norad_id": 54243,
        "name": "GALAXY 31 (G-31)",
        "group": "intelsat",
        "lat": -0.029282394580159066,
        "lon": -39.62167918232249,
        "alt_km": 35781.15685431174,
        "timestamp": "2025-12-17T23:38:06.530826+00:00",
        "meta_object_name": "GALAXY 31 (G-31)",
        "meta_object_id": "2022-153A",
        "meta_epoch": "2025-12-17T12:45:03.348864",
        "meta_mean_motion": 1.00271956,
        "meta_eccentricity": 0.00014751,
        "meta_inclination": 0.0187,
        "meta_ra_of_asc_node": 29.3254,
        "meta_arg_of_pericenter": 252.3101,
        "meta_mean_anomaly": 235.0334,
        "meta_ephemeris_type": 0,
        "meta_classification_type": "U",
        "meta_norad_cat_id": 54243,
        "meta_element_set_no": 999,
        "meta_rev_at_epoch": 531,
        "meta_bstar": 0,
        "meta_mean_motion_dot": 0,
        "meta_mean_motion_ddot": 0,
        "tle_line1": "1 54243U 22153A   25351.53128876  .00000000  00000+0  00000+0 0  9995",
        "tle_line2": "2 54243   0.0187  29.3254 0001475 252.3101 235.0334  1.00271956  5312"
      },
      "geometry": {
        "type": "Point",
        "coordinates": [
          -39.62167918232249,
          -0.029282394580159066
        ]
      }
    },
    {
      "type": "Feature",
      "properties": {
        "norad_id": 54244,
        "name": "GALAXY 32 (G-32)",
        "group": "intelsat",
        "lat": 0.005660471383334749,
        "lon": -9.616174135204611,
        "alt_km": 35776.95993043661,
        "timestamp": "2025-12-17T23:38:06.530838+00:00",
        "meta_object_name": "GALAXY 32 (G-32)",
        "meta_object_id": "2022-153B",
        "meta_epoch": "2025-12-17T04:19:59.261664",
        "meta_mean_motion": 1.00271531,
        "meta_eccentricity": 0.000259,
        "meta_inclination": 0.0104,
        "meta_ra_of_asc_node": 339.7375,
        "meta_arg_of_pericenter": 338.8221,
        "meta_mean_anomaly": 101.4983,
        "meta_ephemeris_type": 0,
        "meta_classification_type": "U",
        "meta_norad_cat_id": 54244,
        "meta_element_set_no": 999,
        "meta_rev_at_epoch": 1131,
        "meta_bstar": 0,
        "meta_mean_motion_dot": -1.5e-06,
        "meta_mean_motion_ddot": 0,
        "tle_line1": "1 54244U 22153B   25351.18054701 -.00000150  00000+0  00000+0 0  9999",
        "tle_line2": "2 54244   0.0104 339.7375 0002590 338.8221 101.4983  1.00271531 11318"
      },
      "geometry": {
        "type": "Point",
        "coordinates": [
          -9.616174135204611,
          0.005660471383334749
        ]
      }
    }
  ]
}